INTELSAT 902 (IS-902)   
1 26900U 01039A   26170.52657541 -.00000291  00000+0  00000+0 0  9992
2 26900   6.1228  71.7552 0004288  13.6094 321.8523  1.00271168 90717
INTELSAT 904 (IS-904)   
1 27380U 02007A   26170.10252515 -.00000234  00000+0  00000+0 0  9994
2 27380   6.9257  69.1626 0006550   6.6050 196.9688  1.00270224 51780
DIRECTV 5 (TEMPO 1)     
1 27426U 02023A   26170.61977353 -.00000064  00000+0  00000+0 0  9994
2 27426   4.8851  75.2808 0003196  15.0596 290.5055  1.00271833 88146
INTELSAT 905 (IS-905)   
1 27438U 02027A   26170.79445240  .00000086  00000+0  00000+0 0  9998
2 27438   6.7611  69.7702 0003944  23.1204 323.9079  1.00272608 51386
GALAXY 3C (G-3C)        
1 27445U 02030A   26170.80285910 -.00000159  00000+0  00000+0 0  9990
2 27445   3.7398  77.9431 0001650  28.6786 355.5790  1.00271482 46520
INTELSAT 906 (IS-906)   
1 27513U 02041A   26170.81218600  .00000006  00000+0  00000+0 0  9991
2 27513   5.8089  72.8898 0004448   0.5930 191.0877  1.00270613 87052
GALAXY 13 (HORIZONS-1)  
1 27954U 03044A   26170.72068678  .00000126  00000+0  00000+0 0  9995
2 27954   1.4254  83.8328 0002202 357.1417 296.4018  1.00272160 46594
INTELSAT 10-02          
1 28358U 04022A   26170.74989359 -.00000017  00000+0  00000+0 0  9991
2 28358   0.0182 302.6836 0000046 156.2032  78.0359  1.00270607 80582
DIRECTV 8               
1 28659U 05019A   26170.72684014  .00000000  00000+0  00000+0 0  9991
2 28659   0.0194  18.5410 0003072  76.0209 316.0004  1.00270173 77099
GALAXY 28 (G-28)        
1 28702U 05022A   26170.42610212 -.00000207  00000+0  00000+0 0  9990
2 28702   3.3039  78.9069 0002827   9.3149 305.7445  1.00270893 51995
GALAXY 16 (G-16)        
1 29236U 06023A   26170.65951869 -.00000133  00000+0  00000+0 0  9994
2 29236   0.0205 113.6190 0002556 332.5127 320.1721  1.00271531 72996
DIRECTV 9S              
1 29494U 06043A   26170.65908536 -.00000120  00000+0  00000+0 0  9991
2 29494   2.4282  80.8747 0005031  14.1095 308.9674  1.00271120 51402
GALAXY 17 (G-17)        
1 31307U 07016B   26170.51964204 -.00000213  00000+0  00000+0 0  9990
2 31307   2.9791  79.8723 0004722  19.2406 270.6879  1.00271531 69821
INTELSAT 11 (IS-11)     
1 32253U 07044B   26170.77304560 -.00000184  00000+0  00000+0 0  9990
2 32253   3.5732  78.6401 0002502  87.6586 134.4895  0.99049730 68472
HORIZONS-2              
1 32388U 07063B   26170.09418547 -.00000261  00000+0  00000+0 0  9992
2 32388   2.6079  80.6019 0003873 358.9434 147.8698  1.00273138 67833
DIRECTV 11              
1 32729U 08013A   26170.65943204 -.00000131  00000+0  00000+0 0  9998
2 32729   0.0347 203.6575 0000168 208.5853 353.8555  1.00271162 45613
GALAXY 18 (G-18)        
1 32951U 08024A   26170.72606014  .00000019  00000+0  00000+0 0  9994
2 32951   0.0208  66.5498 0002893  20.6383 319.1363  1.00271107 45873
INTELSAT 25 (IS-25)     
1 33153U 08034A   26170.77217895 -.00000153  00000+0  00000+0 0  9990
2 33153   2.7176  80.3442 0003543  60.5951 155.1753  0.99033687 65713
GALAXY 19 (G-19)        
1 33376U 08045A   26170.51730203 -.00000145  00000+0  00000+0 0  9995
2 33376   0.0302 263.5782 0002572 190.3596 263.0335  1.00271208 64925
FM-5                    
1 35493U 09034A   26170.80450578 -.00000206  00000+0  00000+0 0  9990
2 35493   0.0201 292.3785 0000902  20.3226 158.7825  1.00273596 46673
INTELSAT 14 (IS-14)     
1 36097U 09064A   26170.86988913 -.00000279  00000+0  00000+0 0  9999
2 36097   0.0155 331.9065 0002371 115.5379  88.8095  1.00271646 60639
INTELSAT 15 (IS-15)     
1 36106U 09067A   26170.74797558 -.00000191  00000+0  00000+0 0  9996
2 36106   0.0174 345.9197 0002169 103.3565 173.1084  1.00272185 41251
DIRECTV 12              
1 36131U 09075A   26170.65873869 -.00000109  00000+0  00000+0 0  9992
2 36131   0.0448 170.4500 0000286 291.6356 300.2141  1.00270604 46570
INTELSAT 16 (IS-16)     
1 36397U 10006A   26170.80641243 -.00000250  00000+0  00000+0 0  9995
2 36397   0.0100 347.1092 0002023 115.5698  19.4489  1.00272205 59681
XM-5                    
1 37185U 10053A   26170.72753347 -.00000029  00000+0  00000+0 0  9997
2 37185   0.0625 272.5298 0002611 289.1818 212.9494  1.00271082 57500
INTELSAT 17 (IS-17)     
1 37238U 10065B   26170.80974323 -.00000007  00000+0  00000+0 0  9993
2 37238   0.0084 101.1185 0002685   7.8492 156.5612  1.00272252 53279
INTELSAT 28 (IS-28)     
1 37392U 11016A   26170.74408690 -.00000231  00000+0  00000+0 0  9992
2 37392   1.8139  82.5921 0003684   6.8953  54.6278  1.00271329 53316
INTELSAT 18 (IS-18)     
1 37834U 11056A   26170.78604567  .00000047  00000+0  00000+0 0  9996
2 37834   0.0352 273.5202 0001787 176.0431 281.4079  1.00271427 53837
INTELSAT 22 (IS-22)     
1 38098U 12011A   26170.80731206 -.00000064  00000+0  00000+0 0  9995
2 38098   0.0163  44.8823 0001531  48.3798 177.5022  1.00272456  7219
INTELSAT 19 (IS-19)     
1 38356U 12030A   26170.78327234 -.00000062  00000+0  00000+0 0  9990
2 38356   0.0163  17.2042 0002994  79.7825 258.9858  1.00271653 50471
INTELSAT 20 (IS-20)     
1 38740U 12043A   26170.86154266  .00000000  00000+0  00000+0 0  9994
2 38740   0.0362  68.6360 0001689 109.3595 108.7302  1.00270123 50776
